OBJECT_NAME,OBJECT_ID,EPOCH,MEAN_MOTION,ECCENTRICITY,INCLINATION,RA_OF_ASC_NODE,ARG_OF_PERICENTER,MEAN_ANOMALY,EPHEMERIS_TYPE,CLASSIFICATION_TYPE,NORAD_CAT_ID,ELEMENT_SET_NO,REV_AT_EPOCH,BSTAR,MEAN_MOTION_DOT,MEAN_MOTION_DDOT
SIRION PATHFINDER-2,2018-099B,2026-06-26T02:25:06.615264,15.14622553,.0007093,97.4252,225.9461,266.8901,93.1519,0,U,43759,999,41397,.2909E-3,.5312E-4,0
CORVUS BC4,2018-099K,2026-06-26T02:52:00.401376,15.12561796,.0007298,97.4065,219.8380,341.6016,18.4950,0,U,43767,999,41375,.28395E-3,.4891E-4,0
M2 PATHFINDER,2020-037E,2026-06-26T02:10:57.093312,15.04706244,.0012561,97.8135,8.4223,120.6544,239.5922,0,U,45727,999,32683,.21596E-3,.2981E-4,0
NETSAT-4,2020-068U,2026-06-26T04:45:10.700064,15.44149820,.0003169,97.8601,186.1637,289.3785,70.7119,0,U,46504,999,31716,.42747E-3,.19512E-3,0
NETSAT-3,2020-068V,2026-06-26T00:23:57.895584,15.42967815,.000315,97.8652,184.1731,319.6519,40.4493,0,U,46505,999,31704,.47493E-3,.20846E-3,0
NETSAT-1,2020-068W,2026-06-25T22:29:50.413056,15.34831232,.0003946,97.8743,178.3152,3.7856,356.3415,0,U,46506,999,31664,.41434E-3,.13918E-3,0
NETSAT-2,2020-068X,2026-06-25T23:11:53.236032,15.46358666,.0002112,97.8614,185.8409,354.2562,5.8662,0,U,46507,999,31709,.50666E-3,.2497E-3,0
GREENCUBE (IO-117),2022-080E,2026-06-25T17:51:47.627136,6.42583224,.0008975,70.1444,295.2691,287.7502,72.2178,0,U,53109,999,9261,0,-.3E-7,0
SITRO-AIS 5 (KATYS),2023-091L,2026-06-26T03:55:26.673888,15.29652546,.0012478,97.5063,241.1486,75.5660,284.6963,0,U,57176,999,16571,.48203E-3,.13814E-3,0
SITRO-AIS 6 (CHIRKIN),2023-091AC,2026-06-26T03:55:04.107072,15.26097535,.0012901,97.5071,240.2197,78.8011,281.4677,0,U,57192,999,16565,.43713E-3,.11231E-3,0
SITRO-AIS 8 (ANOKHIN),2023-091AD,2026-06-26T03:57:13.961088,15.32365947,.0011416,97.5059,242.7752,72.0322,288.2163,0,U,57193,999,16582,.51457E-3,.16048E-3,0
SITRO-AIS 7 (FARTUSHNIY),2023-091AE,2026-06-26T04:02:15.493632,15.25782087,.001277,97.5069,240.0451,79.7697,280.4980,0,U,57194,999,16564,.4418E-3,.11244E-3,0
SITRO-AIS 10 (BURDAEV),2023-091AK,2026-06-26T03:47:55.747104,15.38937035,.0006769,97.5084,247.9162,52.5072,307.6788,0,U,57199,999,16614,.59421E-3,.2287E-3,0
SITRO-AIS 9 (SHCHUKIN),2023-091AM,2026-06-26T04:30:06.261408,15.38437236,.0007065,97.5083,247.6690,52.5123,307.6763,0,U,57201,999,16613,.55768E-3,.21108E-3,0
SITRO-AIS 12 (SMIRENNIY),2023-091AQ,2026-06-26T04:14:07.730304,15.38729934,.0006566,97.5095,248.1304,47.3009,312.8788,0,U,57204,999,16615,.56195E-3,.21473E-3,0
SITRO-AIS 11 (SHEFFER),2023-091AU,2026-06-26T04:29:51.101664,15.39160655,.0006434,97.5093,248.3940,46.9815,313.1968,0,U,57208,999,16617,.55786E-3,.21618E-3,0
SITRO-AIS 25,2024-039R,2026-06-26T05:16:40.959264,14.93554286,.0142615,95.3909,241.2997,296.8234,61.8466,0,U,59066,999,12607,.18533E-3,.2349E-4,0
SITRO-AIS 26,2024-039S,2026-06-26T05:20:26.320704,14.93348603,.0142972,95.3909,241.1971,297.4121,61.2621,0,U,59067,999,12606,.1812E-3,.2285E-4,0
SITRO-AIS 27,2024-039T,2026-06-26T04:33:56.937312,14.93769534,.014192,95.3912,241.4508,296.0859,62.5818,0,U,59068,999,12608,.24591E-3,.3142E-4,0
SITRO-AIS 28,2024-039U,2026-06-26T04:01:10.132032,14.93801538,.0141918,95.3910,241.4830,295.9965,62.6701,0,U,59071,999,12608,.20457E-3,.2609E-4,0
GRBBETA,2024-128C,2026-06-26T04:18:39.434112,15.06688449,.0039494,61.9878,184.7144,136.5498,223.8719,0,U,60237,999,10762,.23759E-3,.3387E-4,0
OOV-CUBE (TUBSAT-30),2024-128F,2026-06-26T04:06:34.341120,15.02803473,.0043514,61.9924,194.2449,135.7765,224.6817,0,U,60240,999,10746,.13738E-3,.1669E-4,0
ROBUSTA-3A (MEDITERRANEE),2024-128J,2026-06-26T03:08:07.846368,15.11752310,.0040161,61.9844,176.6146,130.0014,230.4618,0,U,60243,999,10777,.33022E-3,.5543E-4,0
LASARSAT,2024-247Q,2026-06-26T03:32:53.932416,15.46870082,.0007193,44.9730,211.8425,25.3187,334.8054,0,U,62391,999,8470,.65183E-3,.33317E-3,0
CROCUBE,2024-247T,2026-06-24T09:26:02.551776,15.48681185,.00072263,44.9701,218.9251,18.8099,341.3058,0,U,62394,999,8446,.56516968E-3,.30725E-3,0
FORESAIL-1 PRIME,2025-276DS,2026-06-26T00:33:06.118272,15.18776013,.0003943,97.4201,250.1321,85.4112,274.7572,0,U,66778,999,3174,.27024E-3,.5552E-4,0
KNACKSAT-2,1998-067XZ,2026-06-25T10:05:21.537888,15.60671397,.0008709,51.6277,253.0425,252.4154,107.5888,0,U,67683,999,2156,.64307E-3,.54321E-3,0
